[{"OBJECT_NAME":"TYVAK-182A","OBJECT_ID":"2021-034D","EPOCH":"2026-03-09T17:04:17.866560","MEAN_MOTION":15.0515042,"ECCENTRICITY":0.00048625,"INCLINATION":97.5843,"RA_OF_ASC_NODE":129.3711,"ARG_OF_PERICENTER":316.565,"MEAN_ANOMALY":43.5193,"EPHEMERIS_TYPE":0,"CLASSIFICATION_TYPE":"U","NORAD_CAT_ID":48271,"ELEMENT_SET_NO":999,"REV_AT_EPOCH":26486,"BSTAR":0.00050672592,"MEAN_MOTION_DOT":7.163e-5,"MEAN_MOTION_DDOT":0},{"OBJECT_NAME":"STARLINK-4313","OBJECT_ID":"2022-077X","EPOCH":"2026-03-09T23:20:35.409984","MEAN_MOTION":15.05677178,"ECCENTRICITY":0.00015862,"INCLINATION":97.6022,"RA_OF_ASC_NODE":251.5078,"ARG_OF_PERICENTER":94.6932,"MEAN_ANOMALY":265.4476,"EPHEMERIS_TYPE":0,"CLASSIFICATION_TYPE":"U","NORAD_CAT_ID":53064,"ELEMENT_SET_NO":999,"REV_AT_EPOCH":20102,"BSTAR":0.00028366412,"MEAN_MOTION_DOT":4.038e-5,"MEAN_MOTION_DDOT":0}]
